NORAD_CAT_ID,OBJECT_NAME,OBJECT_TYPE,EPOCH,MEAN_MOTION,ECCENTRICITY,INCLINATION,RA_OF_ASC_NODE,ARG_OF_PERICENTER,MEAN_ANOMALY,BSTAR,MEAN_MOTION_DOT,MEAN_MOTION_DDOT,TLE_LINE0,TLE_LINE1,TLE_LINE2,SEMIMAJOR_AXIS,PERIOD,APOGEE,PERIGEE,DECAYED
49755.0,STARLINK-3210,PAYLOAD,2022-04-02 08:00:01,15.0885011,0.0002402,53.2156,121.6499,30.8132,37.6826,-0.00081531,-0.00013245,0.0,0 STARLINK-3210,1 49755U 21115AH  22092.33334491 -.00013245  00000-0 -81531-3 0  9993,2 49755  53.2156 121.6499 0002402  30.8132  37.6826 15.08850110 19653,6917.849,95.437,541.376,538.053,0.0
49755.0,STARLINK-3210,PAYLOAD,2022-04-02 22:00:01,15.0882142,0.0002173,53.2152,119.0295,29.5226,329.3576,0.00029209,4.361e-05,0.0,0 STARLINK-3210,1 49755U 21115AH  22092.91668981  .00004361  00000-0  29209-3 0  9992,2 49755  53.2152 119.0295 0002173  29.5226 329.3576 15.08821420  3601,6917.937,95.439,541.305,538.299,0.0
49755.0,STARLINK-3210,PAYLOAD,2022-04-03 14:00:01,15.08813327,0.0002441,53.215,116.0383,25.9492,356.0013,0.0013479,0.00021214,0.0,0 STARLINK-3210,1 49755U 21115AH  22093.58334491  .00021214  00000-0  13479-2 0  9999,2 49755  53.2150 116.0383 0002441  25.9492 356.0013 15.08813327 19840,6917.962,95.439,541.516,538.138,0.0
49755.0,STARLINK-3210,PAYLOAD,2022-04-03 22:00:00,15.08800716,0.0002244,53.2151,114.5401,29.889,3.6428,0.0033117,0.00052757,0.0,0 STARLINK-3210,1 49755U 21115AH  22093.91667824  .00052757  00000-0  33117-2 0  9992,2 49755  53.2151 114.5401 0002244  29.8890   3.6428 15.08800716  3599,6918.0,95.44,541.418,538.313,0.0
49755.0,STARLINK-3210,PAYLOAD,2022-04-04 14:00:01,15.08837846,0.0002552,53.2153,111.5489,28.0748,28.6159,0.00094027,0.00014707,0.0,0 STARLINK-3210,1 49755U 21115AH  22094.58334491  .00014707  00000-0  94027-3 0  9998,2 49755  53.2153 111.5489 0002552  28.0748  28.6159 15.08837846 19992,6917.887,95.438,541.5169999999998,537.987,0.0
49755.0,STARLINK-3210,PAYLOAD,2022-04-04 22:00:00,15.08827125,0.0002355,53.2156,110.0507,32.0206,36.2821,0.003459,0.00055175,0.0,0 STARLINK-3210,1 49755U 21115AH  22094.91667824  .00055175  00000-0  34590-2 0  9996,2 49755  53.2156 110.0507 0002355  32.0206  36.2821 15.08827125  3606,6917.92,95.438,541.414,538.156,0.0
49755.0,STARLINK-3210,PAYLOAD,2022-04-05 14:00:01,15.08855273,0.0002601,53.2159,107.0594,28.0067,63.5755,-0.0017102,-0.00027416,0.0,0 STARLINK-3210,1 49755U 21115AH  22095.58335648 -.00027416  00000-0 -17102-2 0  9995,2 49755  53.2159 107.0594 0002601  28.0067  63.5755 15.08855273  3609,6917.834,95.437,541.498,537.899,0.0
49755.0,STARLINK-3210,PAYLOAD,2022-04-05 16:00:00,15.08867275,0.0002521,53.2161,106.6848,28.9112,155.5084,-0.0040548,-0.00064297,0.0,0 STARLINK-3210,1 49755U 21115AH  22095.66667824 -.00064297  00000-0 -40548-2 0  9996,2 49755  53.2161 106.6848 0002521  28.9112 155.5084 15.08867275 20151,6917.797,95.436,541.406,537.918,0.0
49755.0,STARLINK-3210,PAYLOAD,2022-04-05 22:00:00,15.08808135,0.000236,53.2164,105.5614,29.9557,73.1769,0.0017047999999999,0.00026925,0.0,0 STARLINK-3210,1 49755U 21115AH  22095.91667824  .00026925  00000-0  17048-2 0  9997,2 49755  53.2164 105.5614 0002360  29.9557  73.1769 15.08808135  3604,6917.978,95.44,541.475,538.21,0.0
49755.0,STARLINK-3210,PAYLOAD,2022-04-06 06:00:02,15.08834889,0.0002548,53.2166,104.0665,29.7258,85.0407,-0.001111,-0.00017925,0.0,0 STARLINK-3210,1 49755U 21115AH  22096.25002315 -.00017925  00000-0 -11110-2 0  9999,2 49755  53.2166 104.0665 0002548  29.7258  85.0407 15.08834889 20245,6917.896,95.438,541.524,537.998,0.0
49755.0,STARLINK-3210,PAYLOAD,2022-04-06 14:00:01,15.08835685,0.0002631,53.2167,102.5703,28.3779,97.9001,-6.734e-05,-1.36e-05,0.0,0 STARLINK-3210,1 49755U 21115AH  22096.58334491 -.00001360  00000-0 -67340-4 0  9992,2 49755  53.2167 102.5703 0002631  28.3779  97.9001 15.08835685  3606,6917.894,95.438,541.5790000000002,537.938,0.0
49755.0,STARLINK-3210,PAYLOAD,2022-04-06 22:00:00,15.08819132,0.0002418,53.2171,101.0725,32.0866,105.7882,0.0028294,0.00045005,0.0,0 STARLINK-3210,1 49755U 21115AH  22096.91667824  .00045005  00000-0  28294-2 0  9993,2 49755  53.2171 101.0725 0002418  32.0866 105.7882 15.08819132 20345,6917.944,95.439,541.482,538.136,0.0
49755.0,STARLINK-3210,PAYLOAD,2022-04-07 14:00:01,15.08870929,0.0002634999999999,53.2171,98.0813,29.868,131.1932,-0.003422,-0.00054388,0.0,0 STARLINK-3210,1 49755U 21115AH  22097.58334491 -.00054388  00000-0 -34220-2 0  9990,2 49755  53.2171  98.0813 0002635  29.8680 131.1932 15.08870929  3607,6917.786,95.436,541.474,537.828,0.0
49755.0,STARLINK-3210,PAYLOAD,2022-04-07 20:00:01,15.088142,0.0002389,53.2174,96.9578,31.2697,48.5164,0.0023509,0.00037299,0.0,0 STARLINK-3210,1 49755U 21115AH  22097.83334491  .00037299  00000-0  23509-2 0  9996,2 49755  53.2174  96.9578 0002389  31.2697  48.5164 15.08814200 20489,6917.959,95.439,541.477,538.172,0.0
49755.0,STARLINK-3210,PAYLOAD,2022-04-07 22:00:00,15.08816477,0.0002385,53.2175,96.5836,32.1783,140.5025,0.0027202,0.00043243,0.0,0 STARLINK-3210,1 49755U 21115AH  22097.91667824  .00043243  00000-0  27202-2 0  9994,2 49755  53.2175  96.5836 0002385  32.1783 140.5025 15.08816477  3562,6917.9519999999975,95.439,541.467,538.1669999999998,0.0
49755.0,STARLINK-3210,PAYLOAD,2022-04-08 14:00:03,15.08869007,0.0002572,53.2172,93.5922,30.5066,165.4803,-0.0021993,-0.0003515,0.0,0 STARLINK-3210,1 49755U 21115AH  22098.58336806 -.00035150  00000-0 -21993-2 0  9992,2 49755  53.2172  93.5922 0002572  30.5066 165.4803 15.08869007 20595,6917.792,95.436,541.436,537.877,0.0
49755.0,STARLINK-3210,PAYLOAD,2022-04-08 22:00:00,15.08824783,0.0002339,53.2173,92.0947,32.9267,174.5534,0.0014279,0.00022501,0.0,0 STARLINK-3210,1 49755U 21115AH  22098.91667824  .00022501  00000-0  14279-2 0  9999,2 49755  53.2173  92.0947 0002339  32.9267 174.5534 15.08824783  3570,6917.927,95.439,541.41,538.174,0.0
49755.0,STARLINK-3210,PAYLOAD,2022-04-09 06:00:00,15.08832354,0.0002593,53.2173,90.6001,28.4368,190.6821,-0.0012281,-0.00019777,0.0,0 STARLINK-3210,1 49755U 21115AH  22099.25001157 -.00019777  00000-0 -12281-2 0  9992,2 49755  53.2173  90.6001 0002593  28.4368 190.6821 15.08832354 20692,6917.904,95.438,541.563,537.975,0.0
49755.0,STARLINK-3210,PAYLOAD,2022-04-09 14:00:01,15.08840552,0.0002581,53.2169,89.1033,28.1465,202.5415,-0.0015992,-0.00025651,0.0,0 STARLINK-3210,1 49755U 21115AH  22099.58334491 -.00025651  00000-0 -15992-2 0  9998,2 49755  53.2169  89.1033 0002581  28.1465 202.5415 15.08840552  3600,6917.879,95.438,541.529,537.9580000000002,0.0
49755.0,STARLINK-3210,PAYLOAD,2022-04-09 22:00:00,15.08838731,0.0002349,53.2172,87.6095,30.871,211.4119,-0.0074726,-0.00117287,0.0,0 STARLINK-3210,1 49755U 21115AH  22099.91667824 -.00117287  00000-0 -74726-2 0  9991,2 49755  53.2172  87.6095 0002349  30.8710 211.4119 15.08838731  3606,6917.884,95.438,541.374,538.124,0.0
49755.0,STARLINK-3210,PAYLOAD,2022-04-10 06:00:02,15.08823364,0.000259,53.2168,86.1112,29.0259,224.9145,-0.00092221,-0.0001493,0.0,0 STARLINK-3210,1 49755U 21115AH  22100.25002315 -.00014930  00000-0 -92221-3 0  9991,2 49755  53.2168  86.1112 0002590  29.0259 224.9145 15.08823364 20851,6917.931,95.439,541.5880000000002,538.004,0.0
49755.0,STARLINK-3210,PAYLOAD,2022-04-10 14:00:01,15.08838734,0.0002546,53.2164,84.6143,28.3092,237.1345,-0.0017227999999999,-0.00027603,0.0,0 STARLINK-3210,1 49755U 21115AH  22100.58334491 -.00027603  00000-0 -17228-2 0  9994,2 49755  53.2164  84.6143 0002546  28.3092 237.1345 15.08838734  3601,6917.884,95.438,541.511,537.988,0.0
49755.0,STARLINK-3210,PAYLOAD,2022-04-10 22:00:00,15.08825586,0.0002407,53.2165,83.1167,32.8164,244.2193,0.0024967,0.00039656,0.0,0 STARLINK-3210,1 49755U 21115AH  22100.91667824  .00039656  00000-0  24967-2 0  9997,2 49755  53.2165  83.1167 0002407  32.8164 244.2193 15.08825586 20956,6917.924,95.438,541.455,538.124,0.0
49755.0,STARLINK-3210,PAYLOAD,2022-04-11 14:00:01,15.08872861,0.0002558,53.2163,80.1251,28.7831,271.4346,-0.0050118,-0.00079251,0.0,0 STARLINK-3210,1 49755U 21115AH  22101.58334491 -.00079251  00000-0 -50118-2 0  9996,2 49755  53.2163  80.1251 0002558  28.7831 271.4346 15.08872861 21059,6917.78,95.435,541.415,537.875,0.0
49755.0,STARLINK-3210,PAYLOAD,2022-04-11 22:00:00,15.08813236,0.0002407,53.2165,78.6275,31.1241,280.6964,0.00038475,5.836e-05,0.0,0 STARLINK-3210,1 49755U 21115AH  22101.91667824  .00005836  00000-0  38475-3 0  9991,2 49755  53.2165  78.6275 0002407  31.1241 280.6964 15.08813236  3582,6917.962,95.439,541.492,538.1619999999998,0.0
49755.0,STARLINK-3210,PAYLOAD,2022-04-12 06:00:02,15.08802281,0.0002661,53.2166,77.1329,28.8164,294.6303,0.00058021,8.949e-05,0.0,0 STARLINK-3210,1 49755U 21115AH  22102.25002315  .00008949  00000-0  58021-3 0  9994,2 49755  53.2166  77.1329 0002661  28.8164 294.6303 15.08802281 21159,6917.996,95.44,541.702,538.02,0.0
49755.0,STARLINK-3210,PAYLOAD,2022-04-12 14:00:01,15.08830152,0.0002609,53.2165,75.6357,28.4223,306.5107,-0.0019446,-0.00031097,0.0,0 STARLINK-3210,1 49755U 21115AH  22102.58334491 -.00031097  00000-0 -19446-2 0  9992,2 49755  53.2165  75.6357 0002609  28.4223 306.5107 15.08830152  3609,6917.91,95.438,541.58,537.971,0.0
49755.0,STARLINK-3210,PAYLOAD,2022-04-12 22:00:00,15.08815539,0.0002509,53.217,74.1384,32.5886,313.9148,0.0018015,0.00028481,0.0,0 STARLINK-3210,1 49755U 21115AH  22102.91667824  .00028481  00000-0  18015-2 0  9990,2 49755  53.2170  74.1384 0002509  32.5886 313.9148 15.08815539  3563,6917.955,95.439,541.556,538.0840000000002,0.0
49755.0,STARLINK-3210,PAYLOAD,2022-04-13 14:00:03,15.08855445,0.0002694,53.2171,71.1461,31.2941,338.4973,-0.0014844,-0.00023847,0.0,0 STARLINK-3210,1 49755U 21115AH  22103.58336806 -.00023847  00000-0 -14844-2 0  9996,2 49755  53.2171  71.1461 0002694  31.2941 338.4973 15.08855445 21355,6917.833000000001,95.437,541.562,537.835,0.0
